NIMIQ 2                 
1 27632U 02062A   26094.93900403 -.00000066  00000+0  00000+0 0  9990
2 27632   9.2784  57.6581 0006595 318.5046  45.9384  1.00273620 43456
ANIK F2                 
1 28378U 04027A   26095.15252581 -.00000047  00000+0  00000+0 0  9992
2 28378   3.0969  80.3968 0004073 322.3522  94.5021  1.00271858 40539
ANIK F1R                
1 28868U 05036A   26095.11440007 -.00000072  00000+0  00000+0 0  9993
2 28868   4.1260  77.4713 0003221 313.9876  95.8424  1.00272728 45720
ANIK F3                 
1 31102U 07009A   26095.12197449  .00000001  00000+0  00000+0 0  9991
2 31102   1.0085  84.6862 0002849 287.3655 106.5740  1.00271499 45832
NIMIQ 4                 
1 33373U 08044A   26095.17475478 -.00000219  00000+0  00000+0 0  9991
2 33373   0.0200 238.3949 0002344 124.5444 171.4459  1.00272916 64254
TELSTAR 11N             
1 34111U 09009A   26095.23840985  .00000000  00000+0  00000+0 0  9997
2 34111   0.0158 195.4559 0002314 175.7214 230.6438  1.00268887 45512
TERRESTAR-1             
1 35496U 09035A   26095.00987831 -.00000054  00000+0  00000+0 0  9990
2 35496   5.1244  48.8034 0002878 325.4775  71.6127  1.00273280 61408
NIMIQ 5                 
1 35873U 09050A   26095.23147649 -.00000256  00000+0  00000+0 0  9990
2 35873   0.0464  81.6849 0002932 298.7118 183.7693  1.00272282 60614
SKYTERRA 1              
1 37218U 10061A   26094.94056404 -.00000116  00000+0  00000+0 0  9999
2 37218   4.9705  50.8880 0002531   3.2527  16.3868  1.00272041 56467
TELSTAR 14R             
1 37602U 11021A   26095.08365726  .00000000  00000+0  00000+0 0  9990
2 37602   0.0163 216.0603 0002418 164.5611 139.8791  1.00269093 55106
NIMIQ 6                 
1 38342U 12026A   26095.13378222 -.00000173  00000+0  00000+0 0  9991
2 38342   0.0464  68.6184 0002604 306.3534 135.5211  1.00271745 49687
ANIK G1                 
1 39127U 13014A   26095.15330581 -.00000073  00000+0  00000+0 0  9998
2 39127   0.0439  82.7692 0002454 277.9647 140.6076  1.00272290 47526
TELSTAR 12V             
1 41036U 15068A   26095.24282987 -.00000118  00000+0  00000+0 0  9997
2 41036   0.0189 225.6576 0002647 148.3789 251.9271  1.00272436 37895
VIASAT-2                
1 42740U 17029A   26095.17852001 -.00000264  00000+0  00000+0 0  9993
2 42740   0.0201 258.3100 0000522 109.1909 180.3437  1.00276038 32478
LEO 1 (LEO VANTAGE 1)   
1 43113U 18004C   26095.23164208  .00005070  00000+0  35465-3 0  9990
2 43113  99.2453   4.0062 0350554 303.4715  53.3430 14.67469248426789
TELSTAR 19V             
1 43562U 18059A   26095.08365726 -.00000279  00000+0  00000+0 0  9999
2 43562   0.0184 182.5788 0001654 255.2098  82.7077  1.00270241 28414
TELSTAR 18V             
1 43611U 18069A   26095.27316333 -.00000293  00000+0  00000+0 0  9992
2 43611   0.0129 249.4658 0002364 125.5815  54.8551  1.00270358 27901
AMOS-17                 
1 44479U 19050A   26095.22267174  .00000110  00000+0  00000+0 0  9996
2 44479   0.0200 279.4400 0001529 107.6259 263.6054  1.00272863 24455
